0 FENGYUN 1C DEB
1 31236U 99025BLS 13281.29189692  .00002987  00000-0  26121-2 0  4738
2 31236 098.5588 329.3207 0399391 307.3722 109.1924 13.55447711327268
0 FENGYUN 1C DEB
1 31236U 99025BLS 13288.36564352  .00002558  00000-0  22402-2 0  4746
2 31236 098.5572 335.4791 0399372 288.8697 066.8513 13.55483142328228
0 FENGYUN 1C DEB
1 31236U 99025BLS 13289.98954228  .00002604  00000-0  22768-2 0  4758
2 31236 098.5594 336.8961 0399840 284.7113 071.0068 13.55492168328449
0 FENGYUN 1C DEB
1 31236U 99025BLS 13291.90866076  .00002702  00000-0  23631-2 0  4766
2 31236 098.5601 338.5679 0399512 279.5520 076.0933 13.55503846328704
0 FENGYUN 1C DEB
1 31236U 99025BLS 13292.94202183  .00002800  00000-0  24434-2 0  4776
2 31236 098.5589 339.4665 0400124 276.8720 078.7148 13.55511172328841
